{
  "type": "FeatureCollection",
  "features": [
    {
      "type": "Feature",
      "properties": {
        "norad_id": 64902,
        "name": "CO3D 2",
        "group": "resource",
        "lat": 54.890829836191664,
        "lon": 44.3364012487673,
        "alt_km": 499.5869702724749,
        "timestamp": "2025-12-04T15:47:53.754150+00:00",
        "meta_object_name": "CO3D 2",
        "meta_object_id": "2025-156D",
        "meta_epoch": "2025-12-04T07:39:21.333024",
        "meta_mean_motion": 15.20202133,
        "meta_eccentricity": 8.561e-05,
        "meta_inclination": 97.4351,
        "meta_ra_of_asc_node": 54.7068,
        "meta_arg_of_pericenter": 101.9032,
        "meta_mean_anomaly": 258.23,
        "meta_ephemeris_type": 0,
        "meta_classification_type": "U",
        "meta_norad_cat_id": 64902,
        "meta_element_set_no": 999,
        "meta_rev_at_epoch": 1992,
        "meta_bstar": 0.0013061215,
        "meta_mean_motion_dot": 0.00028315,
        "meta_mean_motion_ddot": 0,
        "tle_line1": "1 64902U 25156D   25338.31899691  .00028315  00000+0  13061-2 0  9998",
        "tle_line2": "2 64902  97.4351  54.7068 0000856 101.9032 258.2300 15.20202133 19927"
      },
      "geometry": {
        "type": "Point",
        "coordinates": [
          44.3364012487673,
          54.890829836191664
        ]
      }
    },
    {
      "type": "Feature",
      "properties": {
        "norad_id": 64903,
        "name": "CO3D 1",
        "group": "resource",
        "lat": 54.05933483856551,
        "lon": 44.662921552172094,
        "alt_km": 499.78916248898713,
        "timestamp": "2025-12-04T15:47:53.754161+00:00",
        "meta_object_name": "CO3D 1",
        "meta_object_id": "2025-156E",
        "meta_epoch": "2025-12-04T07:39:34.567776",
        "meta_mean_motion": 15.20196014,
        "meta_eccentricity": 9.615e-05,
        "meta_inclination": 97.4351,
        "meta_ra_of_asc_node": 54.7063,
        "meta_arg_of_pericenter": 112.7871,
        "meta_mean_anomaly": 247.3466,
        "meta_ephemeris_type": 0,
        "meta_classification_type": "U",
        "meta_norad_cat_id": 64903,
        "meta_element_set_no": 999,
        "meta_rev_at_epoch": 1992,
        "meta_bstar": 0.00080462154,
        "meta_mean_motion_dot": 0.00017388,
        "meta_mean_motion_ddot": 0,
        "tle_line1": "1 64903U 25156E   25338.31915009  .00017388  00000+0  80462-3 0  9999",
        "tle_line2": "2 64903  97.4351  54.7063 0000961 112.7871 247.3466 15.20196014 19923"
      },
      "geometry": {
        "type": "Point",
        "coordinates": [
          44.662921552172094,
          54.05933483856551
        ]
      }
    },
    {
      "type": "Feature",
      "properties": {
        "norad_id": 66514,
        "name": "SENTINEL-6B",
        "group": "resource",
        "lat": -24.73585491553834,
        "lon": 11.111572917857826,
        "alt_km": 1318.168503511808,
        "timestamp": "2025-12-04T15:47:53.754172+00:00",
        "meta_object_name": "SENTINEL-6B",
        "meta_object_id": "2025-264A",
        "meta_epoch": "2025-12-03T21:55:25.872096",
        "meta_mean_motion": 12.85877574,
        "meta_eccentricity": 0.0011544,
        "meta_inclination": 66.039,
        "meta_ra_of_asc_node": 180.8509,
        "meta_arg_of_pericenter": 268.5805,
        "meta_mean_anomaly": 91.389,
        "meta_ephemeris_type": 0,
        "meta_classification_type": "U",
        "meta_norad_cat_id": 66514,
        "meta_element_set_no": 999,
        "meta_rev_at_epoch": 215,
        "meta_bstar": 0.00031328,
        "meta_mean_motion_dot": 1.5e-07,
        "meta_mean_motion_ddot": 0,
        "tle_line1": "1 66514U 25264A   25337.91349389  .00000015  00000+0  31328-3 0  9992",
        "tle_line2": "2 66514  66.0390 180.8509 0011544 268.5805  91.3890 12.85877574  2150"
      },
      "geometry": {
        "type": "Point",
        "coordinates": [
          11.111572917857826,
          -24.73585491553834
        ]
      }
    }
  ]
}